NORAD_CAT_ID,OBJECT_NAME,OBJECT_TYPE,EPOCH,MEAN_MOTION,ECCENTRICITY,INCLINATION,RA_OF_ASC_NODE,ARG_OF_PERICENTER,MEAN_ANOMALY,BSTAR,MEAN_MOTION_DOT,MEAN_MOTION_DDOT,TLE_LINE0,TLE_LINE1,TLE_LINE2,SEMIMAJOR_AXIS,PERIOD,APOGEE,PERIGEE,DECAYED
53866.0,STARLINK-4762,PAYLOAD,2023-10-02 09:05:22,15.08832377,0.0001724,53.216,296.5995,87.5912,272.5277,-0.00016361,-2.89e-05,0.0,0 STARLINK-4762,1 53866U 22114BA  23275.37873345 -.00002890  00000-0 -16361-3 0  9998,2 53866  53.2160 296.5995 0001724  87.5912 272.5277 15.08832377 58591,6917.904,95.438,540.961,538.576,0.0
53866.0,STARLINK-4762,PAYLOAD,2023-10-02 18:37:41,15.08835245,0.0001667,53.2154,294.8158,88.7717,271.3467,5.7462e-05,6.26e-06,0.0,0 STARLINK-4762,1 53866U 22114BA  23275.77617444  .00000626  00000-0  57462-4 0  9999,2 53866  53.2154 294.8158 0001667  88.7717 271.3467 15.08835245 59190,6917.895,95.438,540.913,538.607,0.0
53866.0,STARLINK-4762,PAYLOAD,2023-10-03 10:31:32,15.08851546,0.0001626,53.2146,291.841,91.6619,268.456,0.00060431,9.346e-05,0.0,0 STARLINK-4762,1 53866U 22114BA  23276.43857268  .00009346  00000-0  60431-3 0  9990,2 53866  53.2146 291.8410 0001626  91.6619 268.4560 15.08851546 58752,6917.845,95.437,540.835,538.585,0.0
53866.0,STARLINK-4762,PAYLOAD,2023-10-03 13:42:18,15.08856132,0.000165,53.2142,291.2463,91.4344,268.6837,0.00081674,0.0001274,0.0,0 STARLINK-4762,1 53866U 22114BA  23276.57105248  .00012740  00000-0  81674-3 0  9993,2 53866  53.2142 291.2463 0001650  91.4344 268.6837 15.08856132 59318,6917.831,95.437,540.838,538.555,0.0
53866.0,STARLINK-4762,PAYLOAD,2023-10-04 07:11:33,15.08862223,0.0003402,53.2151,287.9745,92.3558,267.7823,0.00084486,0.00013192,0.0,0 STARLINK-4762,1 53866U 22114BA  23277.29969415  .00013192  00000-0  84486-3 0  9993,2 53866  53.2151 287.9745 0003402  92.3558 267.7823 15.08862223 58881,6917.812,95.436,542.031,537.324,0.0
53866.0,STARLINK-4762,PAYLOAD,2023-10-04 11:57:42,15.08854291,0.0001912,53.2145,287.0829,85.4524,274.6687,0.00074473,0.00011589,0.0,0 STARLINK-4762,1 53866U 22114BA  23277.49841370  .00011589  00000-0  74473-3 0  9997,2 53866  53.2145 287.0829 0001912  85.4524 274.6687 15.08854291 59453,6917.837,95.437,541.024,538.379,0.0
53866.0,STARLINK-4762,PAYLOAD,2023-10-04 18:19:15,15.08841604,0.0002215,53.2147,285.8938,80.0475,280.0767,0.0003767,5.712e-05,0.0,0 STARLINK-4762,1 53866U 22114BA  23277.76337600  .00005712  00000-0  37670-3 0  9992,2 53866  53.2147 285.8938 0002215  80.0475 280.0767 15.08841604 58953,6917.875,95.437,541.273,538.208,0.0
53866.0,STARLINK-4762,PAYLOAD,2023-10-05 11:48:29,15.08859482,0.0001927,53.2153,282.6207,97.2419,262.8792,0.00052461,8.075e-05,0.0,0 STARLINK-4762,1 53866U 22114BA  23278.49200775  .00008075  00000-0  52461-3 0  9995,2 53866  53.2153 282.6207 0001927  97.2419 262.8792 15.08859482 59603,6917.821,95.436,541.019,538.353,0.0
53866.0,STARLINK-4762,PAYLOAD,2023-10-06 05:17:44,15.08842603,0.0001926,53.2156,279.3521,92.553,267.5682,0.00012761,1.743e-05,0.0,0 STARLINK-4762,1 53866U 22114BA  23279.22065339  .00001743  00000-0  12761-3 0  9996,2 53866  53.2156 279.3521 0001926  92.5530 267.5682 15.08842603 59178,6917.872,95.437,541.07,538.405,0.0
53866.0,STARLINK-4762,PAYLOAD,2023-10-06 11:39:16,15.08855044,0.0001718,53.2162,278.1613,100.226,259.8925,0.00059046,9.125e-05,0.0,0 STARLINK-4762,1 53866U 22114BA  23279.48560903  .00009125  00000-0  59046-3 0  9990,2 53866  53.2162 278.1613 0001718 100.2260 259.8925 15.08855044 59751,6917.834,95.437,540.888,538.511,0.0
53866.0,STARLINK-4762,PAYLOAD,2023-10-07 00:22:22,15.08846832,0.0002629,53.2164,275.7832,103.2117,256.9168,0.00035486,5.365e-05,0.0,0 STARLINK-4762,1 53866U 22114BA  23280.01553492  .00005365  00000-0  35486-3 0  9990,2 53866  53.2164 275.7832 0002629 103.2117 256.9168 15.08846832 59296,6917.86,95.437,541.543,537.906,0.0
53866.0,STARLINK-4762,PAYLOAD,2023-10-07 06:43:54,15.08841911,0.0001686,53.2178,274.5979,97.0772,263.0412,0.00031221,4.685e-05,0.0,0 STARLINK-4762,1 53866U 22114BA  23280.28049655  .00004685  00000-0  31221-3 0  9997,2 53866  53.2178 274.5979 0001686  97.0772 263.0412 15.08841911 59338,6917.875,95.437,540.906,538.573,0.0
53866.0,STARLINK-4762,PAYLOAD,2023-10-07 11:30:04,15.0884873,0.0001638,53.2167,273.7022,89.2702,270.8478,0.00078055,0.00012159,0.0,0 STARLINK-4762,1 53866U 22114BA  23280.47921497  .00012159  00000-0  78055-3 0  9992,2 53866  53.2167 273.7022 0001638  89.2702 270.8478 15.08848730 59906,6917.854,95.437,540.852,538.586,0.0
53866.0,STARLINK-4762,PAYLOAD,2023-10-08 03:23:55,15.08841548,0.000159,53.216,270.728,100.4555,259.6616,0.00073897,0.00011493,0.0,0 STARLINK-4762,1 53866U 22114BA  23281.14161897  .00011493  00000-0  73897-3 0  9996,2 53866  53.2160 270.7280 0001590 100.4555 259.6616 15.08841548 59461,6917.876,95.437,540.841,538.641,0.0
53866.0,STARLINK-4762,PAYLOAD,2023-10-08 09:45:28,15.08864711,0.0001573,53.2159,269.5391,94.8168,265.3004,0.0013477,0.0002124,0.0,0 STARLINK-4762,1 53866U 22114BA  23281.40657467  .00021240  00000-0  13477-2 0  9996,2 53866  53.2159 269.5391 0001573  94.8168 265.3004 15.08864711 59502,6917.805,95.436,540.758,538.582,0.0
53866.0,STARLINK-4762,PAYLOAD,2023-10-08 16:07:00,15.08843593,0.000224,53.2163,268.3482,90.5709,269.5539,0.0009894,0.00015495,0.0,0 STARLINK-4762,1 53866U 22114BA  23281.67153928  .00015495  00000-0  98940-3 0  9992,2 53866  53.2163 268.3482 0002240  90.5709 269.5539 15.08843593 59549,6917.869,95.437,541.284,538.185,0.0
53866.0,STARLINK-4762,PAYLOAD,2023-10-09 03:14:42,15.08845892,0.0002179,53.2165,266.2678,86.1989,273.9252,0.00080017,0.00012472,0.0,0 STARLINK-4762,1 53866U 22114BA  23282.13521870  .00012472  00000-0  80017-3 0  9997,2 53866  53.2165 266.2678 0002179  86.1989 273.9252 15.08845892 59610,6917.862,95.437,541.235,538.22,0.0
53866.0,STARLINK-4762,PAYLOAD,2023-10-09 11:11:38,15.0885521,0.0001778,53.2166,264.7804,90.408,269.7116,0.0006483,0.00010049,0.0,0 STARLINK-4762,1 53866U 22114BA  23282.46641394  .00010049  00000-0  64830-3 0  9990,2 53866  53.2166 264.7804 0001778  90.4080 269.7116 15.08855210 60203,6917.834,95.437,540.929,538.469,0.0
53866.0,STARLINK-4762,PAYLOAD,2023-10-09 15:57:48,15.08833153,0.0002435,53.215,263.8884,85.2648,274.8622,2.4217e-05,9.7e-07,0.0,0 STARLINK-4762,1 53866U 22114BA  23282.66514160  .00000097  00000-0  24217-4 0  9990,2 53866  53.2150 263.8884 0002435  85.2648 274.8622 15.08833153 59699,6917.901,95.438,541.451,538.082,0.0
53866.0,STARLINK-4762,PAYLOAD,2023-10-10 03:05:29,15.08842416,0.0001483,53.2161,261.8079,92.1667,267.9495,0.00026698,3.964e-05,0.0,0 STARLINK-4762,1 53866U 22114BA  23283.12881792  .00003964  00000-0  26698-3 0  9990,2 53866  53.2161 261.8079 0001483  92.1667 267.9495 15.08842416 59766,6917.873,95.437,540.764,538.712,0.0
53866.0,STARLINK-4762,PAYLOAD,2023-10-10 11:02:25,15.08861689,0.0001641,53.2154,260.3208,87.2922,272.8258,0.0011175,0.00017552,0.0,0 STARLINK-4762,1 53866U 22114BA  23283.46001446  .00017552  00000-0  11175-2 0  9998,2 53866  53.2154 260.3208 0001641  87.2922 272.8258 15.08861689 59812,6917.814,95.436,540.814,538.544,0.0
53866.0,STARLINK-4762,PAYLOAD,2023-10-10 15:48:35,15.08830934,0.0001466,53.2152,259.4285,101.5108,258.6049,-4.6453e-05,-1.027e-05,0.0,0 STARLINK-4762,1 53866U 22114BA  23283.65874010 -.00001027  00000-0 -46453-4 0  9995,2 53866  53.2152 259.4285 0001466 101.5108 258.6049 15.08830934 59847,6917.908,95.438,540.787,538.759,0.0
53866.0,STARLINK-4762,PAYLOAD,2023-10-10 22:10:07,15.08827893,0.0001288,53.2161,258.2384,106.993,253.1203,-6.4228e-05,-1.31e-05,0.0,0 STARLINK-4762,1 53866U 22114BA  23283.92370197 -.00001310  00000-0 -64228-4 0  9997,2 53866  53.2161 258.2384 0001288 106.9930 253.1203 15.08827893 60426,6917.917,95.438,540.673,538.891,0.0
53866.0,STARLINK-4762,PAYLOAD,2023-10-11 07:42:26,15.08852917,0.0001441,53.2146,256.4551,104.0162,256.099,0.0020708,0.00032834,0.0,0 STARLINK-4762,1 53866U 22114BA  23284.32114119  .00032834  00000-0  20708-2 0  9998,2 53866  53.2146 256.4551 0001441 104.0162 256.0990 15.08852917 59947,6917.841,95.437,540.703,538.709,0.0
53866.0,STARLINK-4762,PAYLOAD,2023-10-11 15:39:22,15.08845408,0.000164,53.2152,254.968,96.7608,263.3571,0.0012999,0.00020464,0.0,0 STARLINK-4762,1 53866U 22114BA  23284.65234491  .00020464  00000-0  12999-2 0  9999,2 53866  53.2152 254.9680 0001640  96.7608 263.3571 15.08845408 59991,6917.864,95.437,540.863,538.594,0.0
53866.0,STARLINK-4762,PAYLOAD,2023-10-12 04:22:27,15.08852518,0.0001541,53.2155,252.5887,101.9613,258.1552,0.0014086,0.00022209,0.0,0 STARLINK-4762,1 53866U 22114BA  23285.18226396  .00022209  00000-0  14086-2 0  9991,2 53866  53.2155 252.5887 0001541 101.9613 258.1552 15.08852518 60074,6917.842,95.437,540.773,538.641,0.0
53866.0,STARLINK-4762,PAYLOAD,2023-10-12 07:33:13,15.08859916,0.0001578,53.2158,251.9939,101.6205,258.4964,0.0015064,0.00023781,0.0,0 STARLINK-4762,1 53866U 22114BA  23285.31474227  .00023781  00000-0  15064-2 0  9997,2 53866  53.2158 251.9939 0001578 101.6205 258.4964 15.08859916 60633,6917.82,95.436,540.776,538.593,0.0
53866.0,STARLINK-4762,PAYLOAD,2023-10-12 15:30:09,15.08843974,0.0002303,53.2162,250.5069,90.6936,269.432,0.0010124,0.00015863,0.0,0 STARLINK-4762,1 53866U 22114BA  23285.64594883  .00015863  00000-0  10124-2 0  9998,2 53866  53.2162 250.5069 0002303  90.6936 269.4320 15.08843974 60143,6917.868,95.437,541.326,538.14,0.0
53866.0,STARLINK-4762,PAYLOAD,2023-10-13 04:13:14,15.0884819,0.0001504,53.2156,248.1292,89.1891,270.9274,0.0011625,0.00018266,0.0,0 STARLINK-4762,1 53866U 22114BA  23286.17586541  .00018266  00000-0  11625-2 0  9996,2 53866  53.2156 248.1292 0001504  89.1891 270.9274 15.08848190 60221,6917.855,95.437,540.761,538.68,0.0
53866.0,STARLINK-4762,PAYLOAD,2023-10-13 21:42:29,15.0886679,0.0001545,53.2165,244.8559,91.5326,268.5843,0.0015082,0.00023814,0.0,0 STARLINK-4762,1 53866U 22114BA  23286.90450307  .00023814  00000-0  15082-2 0  9993,2 53866  53.2165 244.8559 0001545  91.5326 268.5843 15.08866790 60877,6917.799,95.436,540.732,538.595,0.0
